[{"OBJECT_NAME":"YUNHAI-2 01C","OBJECT_ID":"2018-112C","EPOCH":"2026-03-09T23:40:43.339008","MEAN_MOTION":14.28951205,"ECCENTRICITY":5.385e-5,"INCLINATION":50.0116,"RA_OF_ASC_NODE":48.4892,"ARG_OF_PERICENTER":172.1642,"MEAN_ANOMALY":187.9282,"EPHEMERIS_TYPE":0,"CLASSIFICATION_TYPE":"U","NORAD_CAT_ID":43911,"ELEMENT_SET_NO":999,"REV_AT_EPOCH":37760,"BSTAR":8.3785899e-5,"MEAN_MOTION_DOT":5.2e-7,"MEAN_MOTION_DDOT":0},{"OBJECT_NAME":"CZ-6A DEB","OBJECT_ID":"2022-151ZJ","EPOCH":"2026-03-09T23:39:33.018048","MEAN_MOTION":14.28969315,"ECCENTRICITY":4.882e-5,"INCLINATION":98.7558,"RA_OF_ASC_NODE":92.6747,"ARG_OF_PERICENTER":24.263,"MEAN_ANOMALY":335.8574,"EPHEMERIS_TYPE":0,"CLASSIFICATION_TYPE":"U","NORAD_CAT_ID":55862,"ELEMENT_SET_NO":999,"REV_AT_EPOCH":16620,"BSTAR":0.0011695522,"MEAN_MOTION_DOT":2.913e-5,"MEAN_MOTION_DDOT":0}]
